{"type":"FeatureCollection","features":[{"type":"Feature","id":0,"geometry":{"type":"Point","coordinates":[23.551551100000001,38.047814500000001]},"properties":{"FID":0,"osm_id":11181237012,"osm_type":"nodes","width":" ","bridge":" ","name_en":"Vamvakia","smoothness":" ","highway":" ","parking":" ","name":" ","amenity":" ","layer":" ","barrier":" ","oneway":" ","building":" ","tunnel":" ","operator":" ","aeroway":" ","railway":"station","surface":" ","public_tra":"station","capacity":" "}},{"type":"Feature","id":1,"geometry":{"type":"Point","coordinates":[23.584791800000001,38.055573000000003]},"properties":{"FID":1,"osm_id":11181237017,"osm_type":"nodes","width":" ","bridge":" ","name_en":"Aspropirgos","smoothness":" ","highway":" ","parking":" ","name":" ","amenity":" ","layer":" ","barrier":" ","oneway":" ","building":" ","tunnel":" ","operator":" ","aeroway":" ","railway":"station","surface":" ","public_tra":"station","capacity":" "}},{"type":"Feature","id":2,"geometry":{"type":"Point","coordinates":[23.8592367,38.140275600000002]},"properties":{"FID":2,"osm_id":4077571119,"osm_type":"nodes","width":" ","bridge":" ","name_en":" ","smoothness":" ","highway":" ","parking":" ","name":"Άγιος Στέφανος","amenity":" ","layer":" ","barrier":" ","oneway":" ","building":" ","tunnel":" ","operator":"ΟΣΕ","aeroway":" ","railway":"station","surface":" ","public_tra":"station","capacity":" "}},{"type":"Feature","id":3,"geometry":{"type":"Point","coordinates":[23.6054475,38.038727899999998]},"properties":{"FID":3,"osm_id":11196596566,"osm_type":"nodes","width":" ","bridge":" ","name_en":"ELPE Aspropirgou","smoothness":" ","highway":" ","parking":" ","name":" ","amenity":" ","layer":" ","barrier":" ","oneway":" ","building":" ","tunnel":" ","operator":" ","aeroway":" ","railway":"station","surface":" ","public_tra":"station","capacity":" "}},{"type":"Feature","id":4,"geometry":{"type":"Point","coordinates":[23.803528100000001,38.042142499999997]},"properties":{"FID":4,"osm_id":2320883269,"osm_type":"nodes","width":" ","bridge":" ","name_en":"Kifisias","smoothness":" ","highway":" ","parking":" ","name":"Κηφισίας","amenity":" ","layer":" ","barrier":" ","oneway":" ","building":" ","tunnel":" ","operator":"ΟΣΕ","aeroway":" ","railway":"station","surface":" ","public_tra":"station","capacity":" "}},{"type":"Feature","id":5,"geometry":{"type":"Point","coordinates":[23.732645399999999,38.054188000000003]},"properties":{"FID":5,"osm_id":6245525849,"osm_type":"nodes","width":" ","bridge":" ","name_en":"Kato Acharnai","smoothness":" ","highway":" ","parking":" ","name":"Κάτω Αχαρναί","amenity":" ","layer":" ","barrier":" ","oneway":" ","building":" ","tunnel":" ","operator":"ΟΣΕ","aeroway":" ","railway":"station","surface":" ","public_tra":"station","capacity":" "}},{"type":"Feature","id":6,"geometry":{"type":"Point","coordinates":[23.6043348,38.081019900000001]},"properties":{"FID":6,"osm_id":833386358,"osm_type":"nodes","width":" ","bridge":" ","name_en":"Aspropyrgos","smoothness":" ","highway":" ","parking":" ","name":"Ασπρόπυργος","amenity":" ","layer":" ","barrier":" ","oneway":" ","building":" ","tunnel":" ","operator":"ΟΣΕ","aeroway":" ","railway":"station","surface":" ","public_tra":"station","capacity":" "}},{"type":"Feature","id":7,"geometry":{"type":"Point","coordinates":[23.695625199999999,38.250664200000003]},"properties":{"FID":7,"osm_id":7785756627,"osm_type":"nodes","width":" ","bridge":" ","name_en":"Avlona","smoothness":" ","highway":" ","parking":" ","name":"Αυλώνας","amenity":" ","layer":" ","barrier":" ","oneway":" ","building":" ","tunnel":" ","operator":" ","aeroway":" ","railway":"station","surface":" ","public_tra":"station","capacity":" "}},{"type":"Feature","id":8,"geometry":{"type":"Point","coordinates":[23.444518800000001,38.021374399999999]},"properties":{"FID":8,"osm_id":11181231531,"osm_type":"nodes","width":" ","bridge":" ","name_en":"Neraki","smoothness":" ","highway":" ","parking":" ","name":" ","amenity":" ","layer":" ","barrier":" ","oneway":" ","building":" ","tunnel":" ","operator":" ","aeroway":" ","railway":"station","surface":" ","public_tra":"station","capacity":" "}},{"type":"Feature","id":9,"geometry":{"type":"Point","coordinates":[23.538465800000001,38.045672400000001]},"properties":{"FID":9,"osm_id":11196596565,"osm_type":"nodes","width":" ","bridge":" ","name_en":"Elefsina","smoothness":" ","highway":" ","parking":" ","name":" ","amenity":" ","layer":" ","barrier":" ","oneway":" ","building":" ","tunnel":" ","operator":" ","aeroway":" ","railway":"station","surface":" ","public_tra":"station","capacity":" "}},{"type":"Feature","id":10,"geometry":{"type":"Point","coordinates":[23.771365599999999,38.057204499999997]},"properties":{"FID":10,"osm_id":936804332,"osm_type":"nodes","width":" ","bridge":" ","name_en":"Iraklio","smoothness":" ","highway":" ","parking":" ","name":"Ηράκλειο","amenity":" ","layer":" ","barrier":" ","oneway":" ","building":" ","tunnel":" ","operator":"ΟΣΕ","aeroway":" ","railway":"station","surface":" ","public_tra":"station","capacity":" "}},{"type":"Feature","id":11,"geometry":{"type":"Point","coordinates":[23.643719999999998,37.949131100000002]},"properties":{"FID":11,"osm_id":6245569445,"osm_type":"nodes","width":" ","bridge":" ","name_en":"Piraeus","smoothness":" ","highway":" ","parking":" ","name":"Πειραιάς","amenity":" ","layer":" ","barrier":" ","oneway":" ","building":" ","tunnel":" ","operator":"ΟΣΕ","aeroway":" ","railway":"station","surface":" ","public_tra":"station","capacity":" "}},{"type":"Feature","id":12,"geometry":{"type":"Point","coordinates":[23.668454000000001,37.962342100000001]},"properties":{"FID":12,"osm_id":2148259149,"osm_type":"nodes","width":" ","bridge":" ","name_en":"Rentis","smoothness":" ","highway":" ","parking":" ","name":"Ρέντης","amenity":" ","layer":" ","barrier":" ","oneway":" ","building":" ","tunnel":" ","operator":"ΟΣΕ","aeroway":" ","railway":"station","surface":" ","public_tra":"station","capacity":" "}},{"type":"Feature","id":13,"geometry":{"type":"Point","coordinates":[23.8958108,37.913011599999997]},"properties":{"FID":13,"osm_id":2541827616,"osm_type":"nodes","width":" ","bridge":" ","name_en":"Koropi","smoothness":" ","highway":" ","parking":" ","name":"Κορωπί","amenity":" ","layer":" ","barrier":" ","oneway":" ","building":" ","tunnel":" ","operator":"ΟΣΕ","aeroway":" ","railway":"station","surface":" ","public_tra":"station","capacity":" "}},{"type":"Feature","id":14,"geometry":{"type":"Point","coordinates":[23.703965199999999,37.973633]},"properties":{"FID":14,"osm_id":987485685,"osm_type":"nodes","width":" ","bridge":" ","name_en":"Rouf","smoothness":" ","highway":" ","parking":" ","name":"Ρουφ","amenity":" ","layer":" ","barrier":" ","oneway":" ","building":" ","tunnel":" ","operator":"ΟΣΕ","aeroway":" ","railway":"station","surface":" ","public_tra":"station","capacity":" "}},{"type":"Feature","id":15,"geometry":{"type":"Point","coordinates":[23.737766300000001,38.065651299999999]},"properties":{"FID":15,"osm_id":6268675384,"osm_type":"nodes","width":" ","bridge":" ","name_en":"Acharnes Railway Center","smoothness":" ","highway":" ","parking":" ","name":"Σιδηροδρομικό Κέντρο Αχαρνών","amenity":" ","layer":" ","barrier":" ","oneway":" ","building":" ","tunnel":" ","operator":"ΟΣΕ","aeroway":" ","railway":"station","surface":" ","public_tra":"station","capacity":" "}},{"type":"Feature","id":16,"geometry":{"type":"Point","coordinates":[23.529549299999999,38.073644000000002]},"properties":{"FID":16,"osm_id":9974805689,"osm_type":"nodes","width":" ","bridge":" ","name_en":"Magoula","smoothness":" ","highway":" ","parking":" ","name":"Μαγούλα","amenity":" ","layer":" ","barrier":" ","oneway":" ","building":" ","tunnel":" ","operator":" ","aeroway":" ","railway":"station","surface":" ","public_tra":"station","capacity":" "}},{"type":"Feature","id":17,"geometry":{"type":"Point","coordinates":[23.718420399999999,38.021858100000003]},"properties":{"FID":17,"osm_id":6245547243,"osm_type":"nodes","width":" ","bridge":" ","name_en":"Agii Anargyri","smoothness":" ","highway":" ","parking":" ","name":"Άγιοι Ανάργυροι","amenity":" ","layer":" ","barrier":" ","oneway":" ","building":" ","tunnel":" ","operator":"ΟΣΕ","aeroway":" ","railway":"station","surface":" ","public_tra":"station","capacity":" "}},{"type":"Feature","id":18,"geometry":{"type":"Point","coordinates":[23.793182600000002,38.045099800000003]},"properties":{"FID":18,"osm_id":10700888566,"osm_type":"nodes","width":" ","bridge":" ","name_en":"Neratziotissa","smoothness":" ","highway":" ","parking":" ","name":"Νερατζιώτισσα","amenity":" ","layer":" ","barrier":" ","oneway":" ","building":" ","tunnel":" ","operator":"ΟΣΕ","aeroway":" ","railway":"station","surface":" ","public_tra":"station","capacity":" "}},{"type":"Feature","id":19,"geometry":{"type":"Point","coordinates":[23.4218492,38.0070306]},"properties":{"FID":19,"osm_id":11196596562,"osm_type":"nodes","width":" ","bridge":" ","name_en":"Nea Peramos","smoothness":" ","highway":" ","parking":" ","name":" ","amenity":" ","layer":" ","barrier":" ","oneway":" ","building":" ","tunnel":" ","operator":" ","aeroway":" ","railway":"station","surface":" ","public_tra":"station","capacity":" "}},{"type":"Feature","id":20,"geometry":{"type":"Point","coordinates":[23.3435013,37.993730499999998]},"properties":{"FID":20,"osm_id":11196596564,"osm_type":"nodes","width":" ","bridge":" ","name_en":"Megara","smoothness":" ","highway":" ","parking":" ","name":" ","amenity":" ","layer":" ","barrier":" ","oneway":" ","building":" ","tunnel":" ","operator":" ","aeroway":" ","railway":"station","surface":" ","public_tra":"station","capacity":" "}},{"type":"Feature","id":21,"geometry":{"type":"Point","coordinates":[23.468848999999999,38.026389299999998]},"properties":{"FID":21,"osm_id":796623305,"osm_type":"nodes","width":" ","bridge":" ","name_en":"Loutropirgos","smoothness":" ","highway":" ","parking":" ","name":" ","amenity":" ","layer":" ","barrier":" ","oneway":" ","building":" ","tunnel":" ","operator":" ","aeroway":" ","railway":"station","surface":" ","public_tra":"station","capacity":" "}},{"type":"Feature","id":22,"geometry":{"type":"Point","coordinates":[23.361068899999999,37.990953099999999]},"properties":{"FID":22,"osm_id":833385855,"osm_type":"nodes","width":" ","bridge":" ","name_en":"Megara","smoothness":" ","highway":" ","parking":" ","name":"Μέγαρα","amenity":" ","layer":" ","barrier":" ","oneway":" ","building":" ","tunnel":" ","operator":" ","aeroway":" ","railway":"station","surface":" ","public_tra":"station","capacity":" "}},{"type":"Feature","id":23,"geometry":{"type":"Point","coordinates":[23.318325999999999,38.329600900000003]},"properties":{"FID":23,"osm_id":287731815,"osm_type":"nodes","width":" ","bridge":" ","name_en":"Thiva (Thebes)","smoothness":" ","highway":" ","parking":" ","name":"Θήβα","amenity":" ","layer":" ","barrier":" ","oneway":" ","building":" ","tunnel":" ","operator":" ","aeroway":" ","railway":"station","surface":" ","public_tra":"station","capacity":" "}},{"type":"Feature","id":24,"geometry":{"type":"Point","coordinates":[23.383559300000002,38.367992399999999]},"properties":{"FID":24,"osm_id":4602671580,"osm_type":"nodes","width":" ","bridge":" ","name_en":"Ypato","smoothness":" ","highway":" ","parking":" ","name":"Ύπατο","amenity":" ","layer":" ","barrier":" ","oneway":" ","building":" ","tunnel":" ","operator":" ","aeroway":" ","railway":"station","surface":" ","public_tra":"station","capacity":" "}},{"type":"Feature","id":25,"geometry":{"type":"Point","coordinates":[23.383581,38.36797]},"properties":{"FID":25,"osm_id":287731943,"osm_type":"nodes","width":" ","bridge":" ","name_en":"Ypato","smoothness":" ","highway":" ","parking":" ","name":"Ύπατο","amenity":" ","layer":" ","barrier":" ","oneway":" ","building":" ","tunnel":" ","operator":" ","aeroway":" ","railway":"station","surface":" ","public_tra":"station","capacity":" "}},{"type":"Feature","id":26,"geometry":{"type":"Point","coordinates":[23.7801051,38.099758199999997]},"properties":{"FID":26,"osm_id":5985426212,"osm_type":"nodes","width":" ","bridge":" ","name_en":" ","smoothness":" ","highway":" ","parking":" ","name":"Δεκέλεια","amenity":" ","layer":" ","barrier":" ","oneway":" ","building":" ","tunnel":" ","operator":"ΟΣΕ","aeroway":" ","railway":"station","surface":" ","public_tra":"station","capacity":" "}},{"type":"Feature","id":27,"geometry":{"type":"Point","coordinates":[23.709847100000001,38.070765399999999]},"properties":{"FID":27,"osm_id":936622796,"osm_type":"nodes","width":" ","bridge":" ","name_en":"Ano Liosia","smoothness":" ","highway":" ","parking":" ","name":"Άνω Λιόσια","amenity":" ","layer":" ","barrier":" ","oneway":" ","building":" ","tunnel":" ","operator":"ΟΣΕ","aeroway":" ","railway":"station","surface":" ","public_tra":"station","capacity":" "}},{"type":"Feature","id":28,"geometry":{"type":"Point","coordinates":[23.716838899999999,38.0698218]},"properties":{"FID":28,"osm_id":6222934811,"osm_type":"nodes","width":" ","bridge":" ","name_en":"Zefiri","smoothness":" ","highway":" ","parking":" ","name":"Ζεφύρι","amenity":" ","layer":" ","barrier":" ","oneway":" ","building":" ","tunnel":" ","operator":"ΟΣΕ","aeroway":" ","railway":"station","surface":" ","public_tra":"station","capacity":" "}},{"type":"Feature","id":29,"geometry":{"type":"Point","coordinates":[23.834269200000001,38.024612400000002]},"properties":{"FID":29,"osm_id":2786690723,"osm_type":"nodes","width":" ","bridge":" ","name_en":"Doukissis Plakentias","smoothness":" ","highway":" ","parking":" ","name":"Δουκίσσης Πλακεντίας","amenity":" ","layer":" ","barrier":" ","oneway":" ","building":" ","tunnel":" ","operator":"ΟΣΕ","aeroway":" ","railway":"station","surface":" ","public_tra":"station","capacity":" "}},{"type":"Feature","id":30,"geometry":{"type":"Point","coordinates":[23.727456,38.0397137]},"properties":{"FID":30,"osm_id":6245525848,"osm_type":"nodes","width":" ","bridge":" ","name_en":"Pirgos Vasilisis","smoothness":" ","highway":" ","parking":" ","name":"Πύργος Βασιλίσσης","amenity":" ","layer":" ","barrier":" ","oneway":" ","building":" ","tunnel":" ","operator":"ΟΣΕ","aeroway":" ","railway":"station","surface":" ","public_tra":"station","capacity":" "}},{"type":"Feature","id":31,"geometry":{"type":"Point","coordinates":[23.4995634,38.041246000000001]},"properties":{"FID":31,"osm_id":11181236989,"osm_type":"nodes","width":" ","bridge":" ","name_en":"ELPE Elefsinas","smoothness":" ","highway":" ","parking":" ","name":" ","amenity":" ","layer":" ","barrier":" ","oneway":" ","building":" ","tunnel":" ","operator":" ","aeroway":" ","railway":"station","surface":" ","public_tra":"station","capacity":" "}},{"type":"Feature","id":32,"geometry":{"type":"Point","coordinates":[23.471170399999998,38.372604500000001]},"properties":{"FID":32,"osm_id":360625719,"osm_type":"nodes","width":" ","bridge":" ","name_en":"Eleonas","smoothness":" ","highway":" ","parking":" ","name":"Ελεώνας","amenity":" ","layer":" ","barrier":" ","oneway":" ","building":" ","tunnel":" ","operator":" ","aeroway":" ","railway":"station","surface":" ","public_tra":"station","capacity":" "}},{"type":"Feature","id":33,"geometry":{"type":"Point","coordinates":[23.471186200000002,38.372635299999999]},"properties":{"FID":33,"osm_id":4602671548,"osm_type":"nodes","width":" ","bridge":" ","name_en":"Eleonas","smoothness":" ","highway":" ","parking":" ","name":"Ελεώνας","amenity":" ","layer":" ","barrier":" ","oneway":" ","building":" ","tunnel":" ","operator":" ","aeroway":" ","railway":"station","surface":" ","public_tra":"station","capacity":" "}},{"type":"Feature","id":34,"geometry":{"type":"Point","coordinates":[23.869925299999998,37.984198599999999]},"properties":{"FID":34,"osm_id":2585407031,"osm_type":"nodes","width":" ","bridge":" ","name_en":"Paiania-Kantza","smoothness":" ","highway":" ","parking":" ","name":"Παιανία-Κάντζα","amenity":" ","layer":" ","barrier":" ","oneway":" ","building":" ","tunnel":" ","operator":"ΟΣΕ","aeroway":" ","railway":"station","surface":" ","public_tra":"station","capacity":" "}},{"type":"Feature","id":35,"geometry":{"type":"Point","coordinates":[23.693429800000001,37.968796500000003]},"properties":{"FID":35,"osm_id":2148380652,"osm_type":"nodes","width":" ","bridge":" ","name_en":"Tavros","smoothness":" ","highway":" ","parking":" ","name":"Ταύρος","amenity":" ","layer":" ","barrier":" ","oneway":" ","building":" ","tunnel":" ","operator":"ΟΣΕ","aeroway":" ","railway":"station","surface":" ","public_tra":"station","capacity":" "}},{"type":"Feature","id":36,"geometry":{"type":"Point","coordinates":[23.609682599999999,38.3221682]},"properties":{"FID":36,"osm_id":2291064340,"osm_type":"nodes","width":" ","bridge":" ","name_en":"Inoi","smoothness":" ","highway":" ","parking":" ","name":"Οινόη","amenity":" ","layer":" ","barrier":" ","oneway":" ","building":" ","tunnel":" ","operator":" ","aeroway":" ","railway":"station","surface":" ","public_tra":"station","capacity":" "}},{"type":"Feature","id":37,"geometry":{"type":"Point","coordinates":[23.844636900000001,38.187378199999998]},"properties":{"FID":37,"osm_id":4683331994,"osm_type":"nodes","width":" ","bridge":" ","name_en":" ","smoothness":" ","highway":" ","parking":" ","name":"Αφίδνες","amenity":" ","layer":" ","barrier":" ","oneway":" ","building":" ","tunnel":" ","operator":"ΟΣΕ","aeroway":" ","railway":"station","surface":" ","public_tra":"station","capacity":" "}},{"type":"Feature","id":38,"geometry":{"type":"Point","coordinates":[23.869604299999999,38.005761499999998]},"properties":{"FID":38,"osm_id":6241176547,"osm_type":"nodes","width":" ","bridge":" ","name_en":"Pallini","smoothness":" ","highway":" ","parking":" ","name":"Παλλήνη","amenity":" ","layer":" ","barrier":" ","oneway":" ","building":" ","tunnel":" ","operator":"ΟΣΕ","aeroway":" ","railway":"station","surface":" ","public_tra":"station","capacity":" "}}]}